0 BREEZE-M DEB
1 39329U 08011DG  13289.99609884  .00000338  00000-0  49850-2 0    29
2 39329 048.7825 178.3078 6456034 256.8677 028.3923 03.06640485 22417
